      2.10          N: GNSS NAV DATA                        RINEX VERSION / TYPE
fic2rin                                 03/18/2021 00:17:21 PGM / RUN BY / DATE
                                                            END OF HEADER
 6 21  3 17 14  0  0.0 1.341570168734e-06 2.046363078989e-12 0.000000000000e+00
    6.400000000000e+01 1.078125000000e+01 3.766228307098e-09 3.007555825984e+00
    6.053596735001e-07 2.326292335056e-03 1.032277941704e-05 5.153728889465e+03
    3.096000000000e+05-7.450580596924e-09-2.194008794164e+00-5.587935447693e-08
    9.830339793568e-01 1.936250000000e+02-1.030018348147e+00-7.596030690882e-09
    3.139416483584e-10 1.000000000000e+00 2.149000000000e+03 0.000000000000e+00
    2.400000000000e+00 0.000000000000e+00 3.725290298462e-09 6.400000000000e+01
    3.024000000000e+05 4.000000000000e+00
31 21  3 17 14  0  0.0-1.061270013452e-04-2.273736754432e-12 0.000000000000e+00
    2.400000000000e+01 6.565625000000e+01 4.585190991609e-09 1.592352338381e+00
    3.730878233910e-06 9.952265536413e-03 1.080706715584e-05 5.153762495041e+03
    3.096000000000e+05-2.235174179077e-08 9.720758846910e-01 1.769512891769e-07
    9.563170487979e-01 1.689375000000e+02 2.539026164745e-01-8.088908364073e-09
   -1.535778257043e-11 1.000000000000e+00 2.149000000000e+03 0.000000000000e+00
    2.400000000000e+00 0.000000000000e+00-1.303851604462e-08 2.400000000000e+01
    3.024000000000e+05 4.000000000000e+00
30 21  3 17 14  0  0.0-3.997301682830e-04-5.456968210638e-12 0.000000000000e+00
    3.700000000000e+01 7.331250000000e+01 5.081997399876e-09 2.020034458063e+00
    3.896653652191e-06 4.966514301486e-03 9.674578905106e-06 5.153740295410e+03
    3.096000000000e+05-1.061707735062e-07 9.735362982545e-01 1.024454832077e-07
    9.372124973138e-01 1.839062500000e+02-2.833603735015e+00-8.293916903501e-09
    1.335769925893e-10 1.000000000000e+00 2.149000000000e+03 0.000000000000e+00
    2.400000000000e+00 0.000000000000e+00 3.725290298462e-09 3.700000000000e+01
    3.024000000000e+05 4.000000000000e+00
25 21  3 17 14  0  0.0 1.006033271551e-04 7.503331289627e-12 0.000000000000e+00
    2.600000000000e+01 4.259375000000e+01 4.911633160665e-09 1.066373217079e+00
    2.250075340271e-06 9.907776955515e-03 3.637745976448e-06 5.153652168274e+03
    3.096000000000e+05-1.247972249985e-07 1.992964016277e+00 6.332993507385e-08
    9.614934951834e-01 3.113750000000e+02 9.538836279390e-01-8.583571825934e-09
   -6.821712723145e-11 1.000000000000e+00 2.149000000000e+03 0.000000000000e+00
    2.400000000000e+00 0.000000000000e+00 5.587935447693e-09 2.600000000000e+01
    3.024000000000e+05 4.000000000000e+00
26 21  3 17 14  0  0.0 5.932990461588e-05 5.343281372916e-12 0.000000000000e+00
    2.500000000000e+01 4.375000000000e+01 5.309864034293e-09 4.058427759749e-01
    2.337619662285e-06 5.771794123575e-03 3.153458237648e-06 5.153769723892e+03
    3.096000000000e+05 1.676380634308e-08 1.952187225828e+00 2.980232238770e-08
    9.424391495849e-01 3.035000000000e+02 2.941966863814e-01-8.714648714384e-09
   -3.285851154604e-11 1.000000000000e+00 2.149000000000e+03 0.000000000000e+00
    2.400000000000e+00 0.000000000000e+00 6.984919309616e-09 2.500000000000e+01
    3.024000000000e+05 4.000000000000e+00
28 21  3 17 14  0  0.0 6.008069030941e-04-5.570655048359e-12 0.000000000000e+00
    2.500000000000e+01 1.628125000000e+01 4.682337895311e-09-6.441822935325e-01
    9.369105100632e-07 1.779278554022e-02 3.445893526077e-06 5.153664388657e+03
    3.096000000000e+05-1.844018697739e-07 2.087959997378e+00-3.725290298462e-09
    9.733693222479e-01 3.226562500000e+02-1.348269960353e+00-8.650003164495e-09
    4.285892810353e-12 1.000000000000e+00 2.149000000000e+03 0.000000000000e+00
    3.400000000000e+00 0.000000000000e+00-1.117587089539e-08 2.500000000000e+01
    3.024000000000e+05 4.000000000000e+00
29 21  3 17 14  0  0.0-3.134664148092e-04-6.821210263297e-12 0.000000000000e+00
    7.300000000000e+01-7.659375000000e+01 3.923020552410e-09-1.229668022986e+00
   -3.995373845100e-06 1.603835728019e-03 7.845461368561e-06 5.153670341492e+03
    3.096000000000e+05 5.587935447693e-09 3.113483814995e+00 6.146728992462e-08
    9.847110159778e-01 2.403437500000e+02 2.120057041777e+00-7.857470152314e-09
   -3.443000557650e-10 1.000000000000e+00 2.149000000000e+03 0.000000000000e+00
    2.400000000000e+00 0.000000000000e+00-1.024454832077e-08 7.300000000000e+01
    3.024000000000e+05 4.000000000000e+00
19 21  3 17 14  0  0.0-2.516573294997e-05 5.002220859751e-12 0.000000000000e+00
    5.400000000000e+01-7.484375000000e+01 3.966950953716e-09 1.109655757982e+00
   -4.213303327560e-06 9.086638339795e-03 8.527189493179e-06 5.153626165390e+03
    3.096000000000e+05-1.117587089539e-08-3.136804551975e+00-1.899898052216e-07
    9.813610740164e-01 2.310000000000e+02 1.793762355711e+00-7.922115702203e-09
   -3.857303529318e-10 1.000000000000e+00 2.149000000000e+03 0.000000000000e+00
    2.400000000000e+00 0.000000000000e+00-1.583248376846e-08 5.400000000000e+01
    3.024000000000e+05 4.000000000000e+00
15 21  3 17 14  0  0.0-1.625190488994e-04 2.614797267597e-12 0.000000000000e+00
    6.200000000000e+01-4.603125000000e+01 5.378795476993e-09-2.330653429779e+00
   -2.656131982803e-06 1.306159968954e-02 7.748603820801e-06 5.153580614090e+03
    3.096000000000e+05 2.104789018631e-07-2.142527674135e-01-3.725290298462e-08
    9.292052386136e-01 2.074062500000e+02 9.718433831207e-01-8.290702483894e-09
   -2.000083311498e-10 1.000000000000e+00 2.149000000000e+03 0.000000000000e+00
    2.400000000000e+00 0.000000000000e+00-1.071020960808e-08 6.200000000000e+01
    3.024000000000e+05 4.000000000000e+00
22 21  3 17 14  0  0.0-6.585195660591e-04 8.185452315956e-12 0.000000000000e+00
    5.500000000000e+01 1.934375000000e+01 5.317721504445e-09-2.380252246763e+00
    1.229345798492e-06 7.046725251712e-03 4.746019840240e-06 5.153578481674e+03
    3.096000000000e+05-2.048909664154e-08-1.244180866681e+00 1.024454832077e-07
    9.337229680981e-01 2.704687500000e+02-1.016918020615e+00-8.469281350992e-09
    3.671581507536e-10 1.000000000000e+00 2.149000000000e+03 0.000000000000e+00
    2.400000000000e+00 0.000000000000e+00-1.816079020500e-08 5.500000000000e+01
    3.024000000000e+05 4.000000000000e+00
24 21  3 17 14  0  0.0 9.522773325443e-07-5.684341886081e-13 0.000000000000e+00
    8.600000000000e+01 7.668750000000e+01 4.899489797702e-09 3.078964795608e+00
    3.762543201447e-06 1.094929105602e-02 1.060962677002e-05 5.153619070053e+03
    3.096000000000e+05-6.705522537231e-08 8.782029975027e-01-1.899898052216e-07
    9.354339780656e-01 1.592812500000e+02 7.354404209255e-01-8.028191549260e-09
    5.785955293977e-11 1.000000000000e+00 2.149000000000e+03 0.000000000000e+00
    3.400000000000e+00 0.000000000000e+00 2.793967723846e-09 8.600000000000e+01
    3.024000000000e+05 4.000000000000e+00
13 21  3 17 14  0  0.0 1.088897697628e-04 4.433786671143e-12 0.000000000000e+00
    5.600000000000e+01-2.459375000000e+01 4.403397704904e-09-1.995642038501e+00
   -1.374632120132e-06 4.909522831440e-03 9.763985872269e-06 5.153680572510e+03
    3.096000000000e+05 8.381903171539e-08 3.033883484282e-02 1.862645149231e-08
    9.685318091117e-01 1.934375000000e+02 1.009164455316e+00-7.831397637718e-09
   -2.653681965077e-10 1.000000000000e+00 2.149000000000e+03 0.000000000000e+00
    2.400000000000e+00 0.000000000000e+00-1.117587089539e-08 5.600000000000e+01
    3.024000000000e+05 4.000000000000e+00
32 21  3 17 14  0  0.0 2.131750807166e-05 6.821210263297e-13 0.000000000000e+00
    7.000000000000e+01-3.996875000000e+01 4.819486465242e-09-6.441003847492e-01
   -1.966953277588e-06 4.730990156531e-03 8.581206202507e-06 5.153646999359e+03
    3.096000000000e+05 2.235174179077e-08-1.073893051956e-01 8.009374141693e-08
    9.576273669665e-01 2.126250000000e+02-2.411892187779e+00-8.154982544899e-09
   -3.271564845236e-10 1.000000000000e+00 2.149000000000e+03 0.000000000000e+00
    2.400000000000e+00 0.000000000000e+00 4.656612873077e-10 7.000000000000e+01
    3.024000000000e+05 4.000000000000e+00
21 21  3 17 14  0  0.0 1.038429327309e-04 3.069544618484e-12 0.000000000000e+00
    7.400000000000e+01 6.968750000000e+00 4.353038464382e-09-1.189227405261e+00
    4.600733518600e-07 2.424356236588e-02 1.099705696106e-05 5.153712873459e+03
    3.096000000000e+05-4.395842552185e-07-2.267560716411e+00 1.545995473862e-07
    9.564637502229e-01 1.759375000000e+02-1.171016073520e+00-8.246057767119e-09
    4.600191616446e-10 1.000000000000e+00 2.149000000000e+03 0.000000000000e+00
    2.400000000000e+00 0.000000000000e+00-1.024454832077e-08 7.400000000000e+01
    3.024000000000e+05 4.000000000000e+00
20 21  3 17 14  0  0.0 5.241115577519e-04-3.410605131648e-13 0.000000000000e+00
    7.700000000000e+01 1.756250000000e+01 5.353794435599e-09 2.043069071673e+00
    8.847564458847e-07 6.006743526086e-03 5.282461643219e-06 5.151687080383e+03
    3.096000000000e+05 1.117587089539e-08-1.290706237610e+00 1.061707735062e-07
    9.370132829815e-01 2.626875000000e+02 3.006760730008e+00-8.532855427679e-09
    3.025126008641e-10 1.000000000000e+00 2.149000000000e+03 0.000000000000e+00
    2.400000000000e+00 0.000000000000e+00-8.381903171539e-09 7.700000000000e+01
    3.024000000000e+05 4.000000000000e+00
23 21  3 17 14  0  0.0 1.172772608697e-04-1.023181539495e-12 0.000000000000e+00
    2.370000000000e+02 6.406250000000e+00 4.793413950646e-09 2.363838551684e+00
    2.235174179077e-07 1.065313117579e-03 5.170702934265e-06 5.153641817093e+03
    3.096000000000e+05 1.676380634308e-08-1.173209546555e+00 7.450580596924e-09
    9.631465384850e-01 2.790000000000e+02 2.509480491901e+00-8.227128407207e-09
    2.800116636097e-10 1.000000000000e+00 2.149000000000e+03 0.000000000000e+00
    2.400000000000e+00 0.000000000000e+00-8.381903171539e-09 2.370000000000e+02
    3.024000000000e+05 4.000000000000e+00
